P/2012 B1 (PANSTARRS),e,7.6101,36.2164,162.2299,6.533356,0.0590200,0.40931104,219.6549,09/11.0/2023,2000,g  9.0,4.0
# From MPC 78590
P/2012 C3 (PANSTARRS),e,9.0920,135.3677,344.9542,9.748681,0.0323806,0.63011148,359.9758,10/06.0/2011,2000,g 13.0,4.0
# From MPC 84931
P/2012 F2 (PANSTARRS),e,14.6964,226.9626,33.2866,6.339542,0.0617472,0.54044600,235.3888,09/11.0/2023,2000,g 12.0,4.0
# From MPEC 2022-ED3
P/2012 G1 (PANSTARRS),e,12.1694,283.2613,266.1037,4.164868,0.1159584,0.32903351,124.8247,09/11.0/2023,2000,g 15.0,4.0
# From MPC 80898
P/2012 K3 (Gibbs),e,13.1850,125.8201,172.2294,3.629520,0.1425379,0.42212894,211.9214,09/11.0/2023,2000,g 15.0,4.0
# From MPC 88326
P/2012 NJ (La Sagra),e,84.4920,315.6291,338.3889,8.466832,0.0400058,0.84662626,164.2004,09/11.0/2023,2000,g 14.5,4.0
# From MPC 81470
P/2012 O1 (McNaught),e,7.4262,91.9076,238.3544,3.542042,0.1478508,0.59401542,244.4016,09/11.0/2023,2000,g 17.5,4.0
# From MPC 80899
P/2012 O2 (McNaught),e,24.4590,120.6776,183.4743,3.627075,0.1426820,0.53165213,226.8260,09/11.0/2023,2000,g 17.0,4.0
# From MPEC 2022-F14
C/2012 S1 (ISON),h,12/01.7718/2013,62.3008,295.4692,346.1727,1.000019,0.014151,2000,8.5,3.2
# From MPC 82320
P/2012 T2 (PANSTARRS),e,12.5703,73.7196,310.9582,5.724800,0.0719554,0.16251644,271.9074,09/11.0/2023,2000,g 10.0,4.0
# From MPC 80900
P/2012 T3 (PANSTARRS),e,9.5540,114.3459,195.5508,6.152118,0.0645903,0.61629065,267.7462,09/11.0/2023,2000,g 15.0,4.0
# From MPC 82720
P/2012 U2 (PANSTARRS),e,10.7592,185.3216,228.3001,7.129245,0.0517772,0.50043063,204.3975,09/11.0/2023,2000,g 12.5,4.0
# From MPC 84024
P/2012 US27 (Siding Spring),e,39.3710,49.2117,0.8530,5.163278,0.0840071,0.64838698,325.8762,09/11.0/2023,2000,g 13.5,4.0
# From MPC 82721
P/2012 WA34 (Lemmon-PANSTARRS),e,6.0828,93.5529,356.6578,4.677586,0.0974252,0.34341348,6.2423,09/11.0/2023,2000,g 13.5,4.0
# From MPC 82721
P/2013 AL76 (Catalina),e,144.8895,146.0400,27.0396,6.501735,0.0594511,0.68559097,234.1329,09/11.0/2023,2000,g 16.0,4.0
# From MPC 91612
P/2013 G1 (Kowalski),e,5.4566,221.2904,51.5406,6.900615,0.0543716,0.51054590,193.9163,09/11.0/2023,2000,g 11.0,4.0
# From MPC 84025
P/2013 G4 (PANSTARRS),e,5.9163,339.6252,214.5893,4.436297,0.1054808,0.40904282,47.3493,09/11.0/2023,2000,g 15.0,4.0
# From MPC 91613
P/2013 J2 (McNaught),e,15.5016,289.3034,37.9152,6.224020,0.0634743,0.65694234,232.4754,09/11.0/2023,2000,g 13.0,4.0
# From MPC 86229
P/2013 N3 (PANSTARRS),e,2.1727,17.4949,323.9817,7.397922,0.0489823,0.59254248,171.0348,09/11.0/2023,2000,g 13.0,4.0
# From MPC 85834
P/2013 N5 (PANSTARRS),e,23.4581,187.1549,176.9642,6.797005,0.0556196,0.73239032,206.6474,09/11.0/2023,2000,g 17.0,4.0
# From MPC 85834
P/2013 P1 (PANSTARRS),e,18.7172,160.6233,138.2491,8.586329,0.0391735,0.60383251,150.8034,09/11.0/2023,2000,g 12.0,4.0
# From MPEC 2022-V95
P/2013 R3 (Catalina-PANSTARRS),e,0.8651,341.9601,11.3582,3.031174,0.1867617,0.27559027,324.2334,09/11.0/2023,2000,g 14.0,4.0
# From unp
P/2013 R3-A (Catalina-PANSTARRS),e,0.8642,341.9150,11.4370,3.030929,0.1867843,0.27552114,324.2987,09/11.0/2023,2000,g  9.0,4.0
# From MPEC 2015-M77
P/2013 R3-B (Catalina-PANSTARRS),e,0.8654,341.9710,11.3719,3.031148,0.1867641,0.27556633,324.2284,09/11.0/2023,2000,g  9.0,4.0
# From MPC 85835
P/2013 T1 (PANSTARRS),e,24.2996,10.0791,346.1930,5.855612,0.0695578,0.62418693,256.2236,09/11.0/2023,2000,g 16.5,4.0
# From MPC 86643
P/2013 T2 (Schwartz),e,9.4552,0.8035,345.5973,3.492345,0.1510179,0.50082410,208.4016,09/11.0/2023,2000,g 16.0,4.0
# From MPC 91613
P/2013 W1 (PANSTARRS),e,4.6979,117.8372,1.2153,3.486714,0.1513839,0.59317822,165.8619,09/11.0/2023,2000,g 17.5,4.0
# From MPC101095
P/2013 YG46 (Spacewatch),e,7.8581,48.8321,242.6601,3.276835,0.1661583,0.45505800,41.1357,09/11.0/2023,2000,g 10.0,4.0
# From MPC 89728
P/2014 A2 (Hill),e,24.5554,106.6385,356.1464,5.926351,0.0683161,0.64604291,247.4968,09/11.0/2023,2000,g 15.0,4.0
# From MPC 92981
P/2014 A3 (PANSTARRS),e,13.7175,229.9780,214.1938,4.606921,0.0996754,0.24638842,14.0828,09/11.0/2023,2000,g 12.0,4.0
# From MPC102095
P/2014 C1 (TOTAS),e,2.6932,167.8122,24.0555,3.029463,0.1869199,0.45182452,300.2090,09/11.0/2023,2000,g 15.5,4.0
# From MPEC 2022-WD2
C/2014 F3 (Sheppard-Trujillo),e,6.5250,326.1306,4.8539,14.47624,0.0178945,0.60512298,14.9416,09/11.0/2023,2000,g  6.0,4.0
# From MPC 98560
P/2014 L2 (NEOWISE),e,5.1964,149.3426,182.7337,6.306682,0.0622304,0.64747131,207.7311,09/11.0/2023,2000,g 12.0,4.0
# From MPC 90769
P/2014 L3 (Hill),e,6.2613,115.5042,178.7104,8.180753,0.0421225,0.77211209,141.5933,09/11.0/2023,2000,g 16.0,4.0
# From MPC 91614
P/2014 M4 (PANSTARRS),e,3.3463,263.1642,148.0920,5.866445,0.0693652,0.59597660,220.2430,09/11.0/2023,2000,g 15.0,4.0
# From MPEC 2022-K19
P/2014 MG4 (Spacewatch-PANSTARRS),e,9.3650,311.7133,298.9962,5.013806,0.0877916,0.25877162,328.1967,09/11.0/2023,2000,g  9.5,4.0
# From MPC 98560
P/2014 O3 (PANSTARRS),e,7.7924,87.6339,204.7990,7.580743,0.0472211,0.38364902,162.2543,09/11.0/2023,2000,g 10.5,4.0
# From MPEC 2023-J29
C/2014 OG392 (PANSTARRS),e,9.0329,145.8124,254.6313,12.25915,0.0229622,0.18652034,14.5611,09/11.0/2023,2000,g  6.0,4.0
# From MPC 91616
P/2014 U4 (PANSTARRS),e,6.4284,11.8896,347.8691,3.509910,0.1498857,0.46462977,140.7974,09/11.0/2023,2000,g 18.0,4.0
# From MPEC 2023-R20
C/2014 UN271 (Bernardinelli-Bernstein),h,01/19.7913/2031,95.4317,189.9025,326.1738,1.002241,10.951997,2000,2.5,3.2
# From MPC 95211
P/2014 V1 (PANSTARRS),e,22.5187,166.1938,177.6793,5.479344,0.0768442,0.53420563,241.8583,09/11.0/2023,2000,g 14.0,4.0
# From MPEC 2023-R20
P/2014 W1 (PANSTARRS),e,8.8369,246.1940,152.0794,4.473804,0.1041571,0.39009399,349.7496,09/11.0/2023,2000,g 15.5,4.0
# From MPC105542
P/2014 W4 (PANSTARRS),e,15.2838,33.3912,67.5740,6.585161,0.0583250,0.35401874,163.8582,09/11.0/2023,2000,g 11.0,4.0
# From MPC 94281
P/2014 X1 (Elenin),e,26.0586,61.5832,33.8577,6.202937,0.0637981,0.71009124,202.4598,09/11.0/2023,2000,g 15.0,4.0
# From MPC 92275
P/2015 A3 (PANSTARRS),e,172.5455,277.3887,249.5436,7.817220,0.0450947,0.85026000,140.9955,09/11.0/2023,2000,g 20.0,4.0
# From MPC 99270
P/2015 B1 (PANSTARRS),e,18.0630,352.8957,188.8142,9.485678,0.0337366,0.36626899,98.7052,09/11.0/2023,2000,g  8.5,4.0
# From MPC109141
P/2015 B4 (Lemmon-PANSTARRS),e,1.7653,266.0922,227.1717,8.511912,0.0396884,0.56115248,124.6854,09/11.0/2023,2000,g 11.0,4.0
# From MPC101096
P/2015 C1 (TOTAS-Gibbs),e,13.9337,348.7871,178.0428,6.569831,0.0585292,0.56200780,179.3007,09/11.0/2023,2000,g 12.5,4.0
# From MPC109141
P/2015 D5 (Kowalski),e,20.5450,74.0813,39.6105,8.949199,0.0368153,0.49062472,126.9333,09/11.0/2023,2000,g  9.0,4.0
# From MPC 96866
P/2015 D6 (Lemmon-PANSTARRS),e,20.2142,45.7927,124.9656,7.132066,0.0517465,0.36173618,155.2412,09/11.0/2023,2000,g 10.5,4.0
# From MPEC 2021-P47
P/2015 HG16 (PANSTARRS),e,18.9787,57.0866,46.9061,4.803002,0.0936343,0.35086945,322.4269,09/11.0/2023,2000,g 12.5,4.0
# From MPC 95213
P/2015 K5 (PANSTARRS),e,39.9394,134.2465,106.2615,6.727406,0.0564849,0.55153311,170.9804,09/11.0/2023,2000,g 13.5,4.0
# From MPC107684
P/2015 M2 (PANSTARRS),e,3.9685,86.5787,226.0760,7.248001,0.0505099,0.17904824,147.5496,09/11.0/2023,2000,g  8.5,4.0
# From MPC 99819
P/2015 P4 (PANSTARRS),e,8.7187,104.6411,280.7388,6.046580,0.0662887,0.58579142,184.6687,09/11.0/2023,2000,g 14.0,4.0
# From MPEC 2022-K19
P/2015 PD229 (Cameron-ISON),e,2.0236,342.6787,352.7466,7.197368,0.0510439,0.32690963,150.4249,09/11.0/2023,2000,g 11.5,2.0
# From MPC 96867
P/2015 Q2 (Pimentel),e,146.5590,228.5589,244.6768,7.353108,0.0494308,0.75097021,144.5306,09/11.0/2023,2000,g 15.5,4.0
# From MPC 98562
P/2015 R1 (PANSTARRS),e,22.7030,48.3093,300.6152,5.881285,0.0691028,0.63398503,206.8520,09/11.0/2023,2000,g 14.0,4.0
# From MPC 95734
P/2015 R2 (PANSTARRS),e,15.4831,168.5915,149.8780,4.484132,0.1037974,0.45256124,312.0835,09/11.0/2023,2000,g 14.5,4.0
# From MPC102953
P/2015 TO19 (Lemmon-PANSTARRS),e,6.5025,321.6145,89.2547,4.550262,0.1015429,0.35962402,278.3509,09/11.0/2023,2000,g 14.0,4.0
# From MPC110080
P/2015 TP200 (LINEAR),e,8.7792,7.0044,82.4414,7.262766,0.0503560,0.53676947,126.2249,09/11.0/2023,2000,g 11.0,4.0
# From MPC101098
P/2015 W2 (Catalina),e,11.6133,294.0897,117.6303,7.290641,0.0500675,0.63555692,145.0419,09/11.0/2023,2000,g 13.0,4.0
# From MPEC 2022-OB6
C/2015 XY1 (Lemmon),e,148.8527,281.5466,196.1414,8649,0.0000012,0.99908314,0.0000,04/25.0623/2018,2000,g  5.5,4.0
# From MPEC 2023-J29
P/2015 X3 (PANSTARRS),e,24.4168,77.2577,306.8808,5.002216,0.0880969,0.44013710,259.7465,09/11.0/2023,2000,g 15.0,4.0
# From MPC115881
P/2015 X6 (PANSTARRS),e,4.5655,106.9303,329.8036,2.751681,0.2159270,0.17344202,228.5396,09/11.0/2023,2000,g 16.0,4.0
# From MPEC 2023-P35
P/2015 XG422 (PANSTARRS),e,20.1743,178.9633,43.5589,4.339207,0.1090407,0.30738224,270.5916,09/11.0/2023,2000,g 13.5,4.0
# From MPC100282
P/2016 A2 (Christensen),e,26.4043,291.6186,141.2890,4.753638,0.0950966,0.27115132,286.4961,09/11.0/2023,2000,g 11.5,4.0
# From MPEC 2022-OB6
P/2016 A3 (PANSTARRS),e,8.5125,187.2016,340.8573,7.875641,0.0445939,0.38612796,103.8951,09/11.0/2023,2000,g 10.0,4.0
# From MPC102098
P/2016 A7 (PANSTARRS),e,16.6073,221.4999,352.4702,5.035851,0.0872157,0.56497510,241.0285,09/11.0/2023,2000,g 16.0,4.0
# From MPEC 2021-P47
P/2016 G1 (PANSTARRS),e,10.9713,204.0158,111.1480,2.583380,0.2373676,0.21044027,214.4600,09/11.0/2023,2000,g 14.0,4.0
# From MPEC 2017-D91
P/2016 J1-A (PANSTARRS),e,14.3285,199.8078,47.3955,3.176738,0.1740732,0.22753619,98.5393,09/11.0/2023,2000,g 16.5,4.0
# From MPEC 2017-A77
P/2016 J1-B (PANSTARRS),e,14.3313,199.8127,47.2875,3.176378,0.1741028,0.22738416,98.6933,09/11.0/2023,2000,g 17.0,4.0
# From MPEC 2022-ED3
C/2016 M1 (PANSTARRS),e,90.8167,92.2775,209.9259,14525,0.0000006,0.99984757,0.0000,08/10.2927/2018,2000,g  5.0,4.0
# From MPEC 2021-P47
C/2016 N6 (PANSTARRS),e,105.8779,298.8665,162.5637,923.3000,0.0000351,0.99711905,0.0000,07/17.1894/2018,2000,g  7.0,4.0
# From MPC102099
